EOSSAT-1                
1 55053U 23001AW  26068.73619225  .00007695  00000+0  24844-3 0  9992
2 55053  97.3357 130.2294 0011263 110.3168 249.9285 15.32339828176689
STARLINK-34510          
1 64596U 25137C   26068.89012468  .00028003  00000+0  95347-3 0  9991
2 64596  53.1574 334.4486 0001099 105.7139 254.3983 15.30218974 40765
